NORAD_CAT_ID,OBJECT_NAME,OBJECT_TYPE,EPOCH,MEAN_MOTION,ECCENTRICITY,INCLINATION,RA_OF_ASC_NODE,ARG_OF_PERICENTER,MEAN_ANOMALY,BSTAR,MEAN_MOTION_DOT,MEAN_MOTION_DDOT,TLE_LINE0,TLE_LINE1,TLE_LINE2,SEMIMAJOR_AXIS,PERIOD,APOGEE,PERIGEE,DECAYED
49408.0,STARLINK-3151,PAYLOAD,2024-02-07 06:46:30,15.08850109,0.0001914,53.2174,47.224,86.6291,273.492,-5.4907e-06,-3.76e-06,0.0,0 STARLINK-3151,1 49408U 21104A   24038.28230193 -.00000376  00000-0 -54907-5 0  9996,2 49408  53.2174  47.2240 0001914  86.6291 273.4920 15.08850109124781,6917.849,95.437,541.039,538.39,0.0
49408.0,STARLINK-3151,PAYLOAD,2024-02-07 17:54:12,15.08847459,0.0001892,53.2178,45.1428,95.1285,264.9923,-7.2327e-06,-4.03e-06,0.0,0 STARLINK-3151,1 49408U 21104A   24038.74598115 -.00000403  00000-0 -72327-5 0  9995,2 49408  53.2178  45.1428 0001892  95.1285 264.9923 15.08847459123751,6917.858,95.437,541.031,538.414,0.0
49408.0,STARLINK-3151,PAYLOAD,2024-02-08 06:37:18,15.08839763,0.0001945,53.2176,42.7616,101.2664,258.8547,2.7737e-05,1.53e-06,0.0,0 STARLINK-3151,1 49408U 21104A   24039.27590600  .00000153  00000-0  27737-4 0  9999,2 49408  53.2176  42.7616 0001945 101.2664 258.8547 15.08839763124934,6917.881,95.438,541.092,538.401,0.0
49408.0,STARLINK-3151,PAYLOAD,2024-02-09 09:38:51,15.0884588,0.0002105,53.2179,37.7047,110.9607,249.161,-6.4366e-06,-3.91e-06,0.0,0 STARLINK-3151,1 49408U 21104A   24040.40198405 -.00000391  00000-0 -64366-5 0  9999,2 49408  53.2179  37.7047 0002105 110.9607 249.1610 15.08845880125103,6917.862,95.437,541.184,538.271,0.0
49408.0,STARLINK-3151,PAYLOAD,2024-02-10 03:08:06,15.0883697,0.0002204,53.2177,34.4331,118.9738,241.1476,5.3834e-05,5.69e-06,0.0,0 STARLINK-3151,1 49408U 21104A   24041.13062908  .00000569  00000-0  53834-4 0  9990,2 49408  53.2177  34.4331 0002204 118.9738 241.1476 15.08836970125218,6917.89,95.438,541.279,538.23,0.0
49408.0,STARLINK-3151,PAYLOAD,2024-02-10 06:18:52,15.08838583,0.0002058,53.2182,33.8414,110.3159,249.8055,7.706e-05,9.38e-06,0.0,0 STARLINK-3151,1 49408U 21104A   24041.26310911  .00000938  00000-0  77060-4 0  9991,2 49408  53.2182  33.8414 0002058 110.3159 249.8055 15.08838583124139,6917.885,95.438,541.173,538.326,0.0
49408.0,STARLINK-3151,PAYLOAD,2024-02-11 09:20:26,15.08842129,0.0001993,53.2181,28.7826,111.0811,249.0394,4.934e-05,4.97e-06,0.0,0 STARLINK-3151,1 49408U 21104A   24042.38918984  .00000497  00000-0  49340-4 0  9999,2 49408  53.2181  28.7826 0001993 111.0811 249.0394 15.08842129125408,6917.874,95.437,541.118,538.36,0.0
49408.0,STARLINK-3151,PAYLOAD,2024-02-12 04:25:03,15.0884676,0.0001835,53.2179,25.2134,105.0031,255.1165,7.1589e-05,8.52e-06,0.0,0 STARLINK-3151,1 49408U 21104A   24043.18406709  .00000852  00000-0  71589-4 0  9990,2 49408  53.2179  25.2134 0001835 105.0031 255.1165 15.08846760124421,6917.86,95.437,540.994,538.455,0.0
49408.0,STARLINK-3151,PAYLOAD,2024-02-13 02:40:27,15.08839289,0.0001834,53.2175,21.052,107.4213,252.698,-2.3938e-05,-6.69e-06,0.0,0 STARLINK-3151,1 49408U 21104A   24044.11143499 -.00000669  00000-0 -23938-4 0  9991,2 49408  53.2175  21.0520 0001834 107.4213 252.6980 15.08839289125669,6917.883,95.438,541.016,538.479,0.0
49408.0,STARLINK-3151,PAYLOAD,2024-02-13 07:26:37,15.08841341,0.000157,53.2179,20.1593,99.0006,261.1163,1.5017e-05,-4.9e-07,0.0,0 STARLINK-3151,1 49408U 21104A   24044.31015338 -.00000049  00000-0  15017-4 0  9993,2 49408  53.2179  20.1593 0001570  99.0006 261.1163 15.08841341124597,6917.876,95.437,540.827,538.655,0.0
49408.0,STARLINK-3151,PAYLOAD,2024-02-13 15:23:33,15.08840786,0.0001711,53.2187,18.6732,84.6253,275.4934,2.8714e-07,-2.84e-06,0.0,0 STARLINK-3151,1 49408U 21104A   24044.64135566 -.00000284  00000-0  28714-6 0  9996,2 49408  53.2187  18.6732 0001711  84.6253 275.4934 15.08840786124646,6917.878,95.438,540.927,538.559,0.0
49408.0,STARLINK-3151,PAYLOAD,2024-02-14 04:06:38,15.08847066,0.0001748,53.2191,16.2946,101.1687,258.9502,-2.7143e-05,-7.2e-06,0.0,0 STARLINK-3151,1 49408U 21104A   24045.17127327 -.00000720  00000-0 -27143-4 0  9990,2 49408  53.2191  16.2946 0001748 101.1687 258.9502 15.08847066125824,6917.859,95.437,540.933,538.515,0.0
49408.0,STARLINK-3151,PAYLOAD,2024-02-14 05:42:00,15.08849309,0.0001952,53.2187,15.9998,118.3082,241.8107,0.00015942,2.251e-05,0.0,0 STARLINK-3151,1 49408U 21104A   24045.23750434  .00002251  00000-0  15942-3 0  9990,2 49408  53.2187  15.9998 0001952 118.3082 241.8107 15.08849309125833,6917.852,95.437,541.067,538.367,0.0
49408.0,STARLINK-3151,PAYLOAD,2024-02-14 15:14:20,15.0883622,0.0001719,53.2193,14.2152,78.525,281.5935,6.0725e-05,6.78e-06,0.0,0 STARLINK-3151,1 49408U 21104A   24045.63495801  .00000678  00000-0  60725-4 0  9999,2 49408  53.2193  14.2152 0001719  78.5250 281.5935 15.08836220125893,6917.892,95.438,540.946,538.568,0.0
49408.0,STARLINK-3151,PAYLOAD,2024-02-15 07:08:11,15.08839604,0.0001552,53.2185,11.2371,96.9766,263.1403,6.3922e-05,7.29e-06,0.0,0 STARLINK-3151,1 49408U 21104A   24046.29735696  .00000729  00000-0  63922-4 0  9990,2 49408  53.2185  11.2371 0001552  96.9766 263.1403 15.08839604124899,6917.882,95.438,540.82,538.673,0.0
49408.0,STARLINK-3151,PAYLOAD,2024-02-15 15:05:07,15.08836382,0.0001735,53.2198,9.7518,93.139,266.9801,4.3781e-05,4.09e-06,0.0,0 STARLINK-3151,1 49408U 21104A   24046.62856094  .00000409  00000-0  43781-4 0  9999,2 49408  53.2198   9.7518 0001735  93.1390 266.9801 15.08836382124942,6917.891,95.438,540.957,538.556,0.0
49408.0,STARLINK-3151,PAYLOAD,2024-02-16 03:48:12,15.08842595,0.0001407,53.2206,7.3742,94.3075,265.8078,9.6574e-05,1.249e-05,0.0,0 STARLINK-3151,1 49408U 21104A   24047.15847517  .00001249  00000-0  96574-4 0  9999,2 49408  53.2206   7.3742 0001407  94.3075 265.8078 15.08842595126123,6917.872,95.437,540.711,538.764,0.0
49408.0,STARLINK-3151,PAYLOAD,2024-02-16 21:17:27,15.08833689,0.0001515,53.2188,4.104,94.6683,265.4482,6.4785e-05,7.43e-06,0.0,0 STARLINK-3151,1 49408U 21104A   24047.88712149  .00000743  00000-0  64785-4 0  9998,2 49408  53.2188   4.1040 0001515  94.6683 265.4482 15.08833689125135,6917.9,95.438,540.813,538.717,0.0
49408.0,STARLINK-3151,PAYLOAD,2024-02-17 03:38:59,15.08843693,0.0001493,53.2192,2.9162,88.1137,272.0026,5.4666e-06,-2.01e-06,0.0,0 STARLINK-3151,1 49408U 21104A   24048.15207936 -.00000201  00000-0  54666-5 0  9990,2 49408  53.2192   2.9162 0001493  88.1137 272.0026 15.08843693126278,6917.869,95.437,540.767,538.701,0.0
49408.0,STARLINK-3151,PAYLOAD,2024-02-17 21:08:14,15.08835547,0.0001363,53.2193,359.6462,84.9549,275.1598,4.0469e-05,3.56e-06,0.0,0 STARLINK-3151,1 49408U 21104A   24048.88072403  .00000356  00000-0  40469-4 0  9994,2 49408  53.2193 359.6462 0001363  84.9549 275.1598 15.08835547125288,6917.894,95.438,540.702,538.816,0.0
49408.0,STARLINK-3151,PAYLOAD,2024-02-18 01:54:23,15.08837562,0.0001387,53.2193,358.755,86.288,273.827,6.3507e-05,7.23e-06,0.0,0 STARLINK-3151,1 49408U 21104A   24049.07944237  .00000723  00000-0  63507-4 0  9995,2 49408  53.2193 358.7550 0001387  86.2880 273.8270 15.08837562126412,6917.888,95.438,540.712,538.793,0.0
49408.0,STARLINK-3151,PAYLOAD,2024-02-18 13:02:05,15.08851022,0.0001614,53.2206,356.6732,93.9494,266.1682,-2.0313e-05,-6.11e-06,0.0,0 STARLINK-3151,1 49408U 21104A   24049.54311427 -.00000611  00000-0 -20313-4 0  9992,2 49408  53.2206 356.6732 0001614  93.9494 266.1682 15.08851022125389,6917.847,95.437,540.828,538.595,0.0
49408.0,STARLINK-3151,PAYLOAD,2024-02-18 20:59:01,15.0884033,0.0001563,53.2212,355.1884,107.2811,252.8352,9.5843e-05,1.238e-05,0.0,0 STARLINK-3151,1 49408U 21104A   24049.87431869  .00001238  00000-0  95843-4 0  9995,2 49408  53.2212 355.1884 0001563 107.2811 252.8352 15.08840330125435,6917.879,95.438,540.826,538.663,0.0
49408.0,STARLINK-3151,PAYLOAD,2024-02-19 03:20:33,15.08843563,0.0001598,53.2209,354.0009,113.1118,247.0043,0.00013777,1.905e-05,0.0,0 STARLINK-3151,1 49408U 21104A   24050.13927536  .00001905  00000-0  13777-3 0  9993,2 49408  53.2209 354.0009 0001598 113.1118 247.0043 15.08843563125470,6917.869,95.437,540.84,538.629,0.0
49408.0,STARLINK-3151,PAYLOAD,2024-02-19 19:14:25,15.08836744,0.0001651,53.2199,351.0277,108.1879,251.9293,3.2209e-05,2.25e-06,0.0,0 STARLINK-3151,1 49408U 21104A   24050.80168334  .00000225  00000-0  32209-4 0  9996,2 49408  53.2199 351.0277 0001651 108.1879 251.9293 15.08836744126677,6917.89,95.438,540.897,538.613,0.0
49408.0,STARLINK-3151,PAYLOAD,2024-02-20 03:11:22,15.08828547,0.0001305,53.2176,349.5361,84.1309,275.9832,-6.6794e-05,-1.35e-05,0.0,0 STARLINK-3151,1 49408U 21104A   24051.13289367 -.00001350  00000-0 -66794-4 0  9991,2 49408  53.2176 349.5361 0001305  84.1309 275.9832 15.08828547126728,6917.915,95.438,540.683,538.878,0.0
49408.0,STARLINK-3151,PAYLOAD,2024-02-20 12:43:41,15.08824262,0.0001716,53.2195,347.7511,85.5102,274.6086,-0.00013151,-2.38e-05,0.0,0 STARLINK-3151,1 49408U 21104A   24051.53034147 -.00002380  00000-0 -13151-3 0  9991,2 49408  53.2195 347.7511 0001716  85.5102 274.6086 15.08824262125689,6917.928,95.439,540.981,538.606,0.0
49408.0,STARLINK-3151,PAYLOAD,2024-02-21 03:02:09,15.08834283,0.0001433,53.2184,345.077,90.5903,269.5254,-4.9741e-05,-1.079e-05,0.0,0 STARLINK-3151,1 49408U 21104A   24052.12649713 -.00001079  00000-0 -49741-4 0  9997,2 49408  53.2184 345.0770 0001433  90.5903 269.5254 15.08834283126872,6917.898,95.438,540.754,538.772,0.0
49408.0,STARLINK-3151,PAYLOAD,2024-02-21 12:34:27,15.08839295,0.0001377,53.2185,343.2911,83.9699,276.1451,9.4651e-05,1.219e-05,0.0,0 STARLINK-3151,1 49408U 21104A   24052.52393048  .00001219  00000-0  94651-4 0  9992,2 49408  53.2185 343.2911 0001377  83.9699 276.1451 15.08839295125831,6917.883,95.438,540.7,538.795,0.0
49408.0,STARLINK-3151,PAYLOAD,2024-02-22 02:52:55,15.088448,0.000154,53.2186,340.6149,97.0156,263.1011,0.00027191,4.043e-05,0.0,0 STARLINK-3151,1 49408U 21104A   24053.12008291  .00004043  00000-0  27191-3 0  9994,2 49408  53.2186 340.6149 0001540  97.0156 263.1011 15.08844800127021,6917.866,95.437,540.796,538.665,0.0
